{"type":"Feature","properties":{},"geometry":{"type":"Polygon","coordinates":[[[15.5,37.5],[15.0,37.5],[14.5,37.5],[14.0,37.5],[13.5,37.5],[13.0,37.5],[12.5,37.5],[12.0,37.5],[11.5,37.5],[11.0,37.5],[10.5,37.5],[10.0,37.5],[9.5,37.5],[9.0,37.5],[8.5,37.5],[8.0,37.5],[7.5,37.5],[7.0,37.5],[6.5,37.5],[6.0,37.5],[5.5,37.5],[5.0,37.5],[4.5,37.5],[4.0,37.5],[3.5,37.5],[3.0,37.5],[2.5,37.5],[2.0,37.5],[1.5,37.5],[1.0,37.5],[0.5,37.5],[0.0,37.5],[-0.5,37.5],[-1.0,37.5],[-1.5,37.5],[-2.0,37.5],[-2.5,37.5],[-3.0,37.5],[-3.5,37.5],[-4.0,37.5],[-4.5,37.5],[-5.0,37.5],[-5.5,37.5],[-6.0,37.5],[-6.5,37.5],[-7.0,37.5],[-7.5,37.5],[-8.0,37.5],[-8.5,37.5],[-9.0,37.5],[-9.5,37.5],[-10.0,37.5],[-10.5,37.5],[-11.0,37.5],[-11.5,37.5],[-12.0,37.5],[-12.0,38.0],[-12.0,38.49],[-12.0,38.99],[-12.0,39.49],[-12.0,39.99],[-12.0,40.48],[-12.0,40.98],[-12.0,41.48],[-12.0,41.98],[-12.0,42.47],[-12.0,42.97],[-12.0,43.47],[-12.0,43.96],[-12.0,44.46],[-12.0,44.96],[-12.0,45.46],[-12.0,45.95],[-12.0,46.45],[-12.0,46.95],[-12.0,47.44],[-12.0,47.94],[-12.0,48.44],[-12.0,48.94],[-12.0,49.43],[-12.0,49.93],[-12.0,50.43],[-12.0,50.93],[-12.0,51.42],[-12.0,51.92],[-12.0,52.42],[-12.0,52.91],[-12.0,53.41],[-12.0,53.91],[-12.0,54.41],[-12.0,54.9],[-12.0,55.4],[-11.5,55.4],[-11.0,55.4],[-10.5,55.4],[-10.0,55.4],[-9.5,55.4],[-9.0,55.4],[-8.5,55.4],[-8.0,55.4],[-7.5,55.4],[-7.0,55.4],[-6.5,55.4],[-6.0,55.4],[-5.5,55.4],[-5.0,55.4],[-4.5,55.4],[-4.0,55.4],[-3.5,55.4],[-3.0,55.4],[-2.5,55.4],[-2.0,55.4],[-1.5,55.4],[-1.0,55.4],[-0.5,55.4],[0.0,55.4],[0.5,55.4],[1.0,55.4],[1.5,55.4],[2.0,55.4],[2.5,55.4],[3.0,55.4],[3.5,55.4],[4.0,55.4],[4.5,55.4],[5.0,55.4],[5.5,55.4],[6.0,55.4],[6.5,55.4],[7.0,55.4],[7.5,55.4],[8.0,55.4],[8.5,55.4],[9.0,55.4],[9.5,55.4],[10.0,55.4],[10.5,55.4],[11.0,55.4],[11.5,55.4],[12.0,55.4],[12.5,55.4],[13.0,55.4],[13.5,55.4],[14.0,55.4],[14.5,55.4],[15.0,55.4],[15.5,55.4],[16.0,55.4],[16.0,54.9],[16.0,54.41],[16.0,53.91],[16.0,53.41],[16.0,52.91],[16.0,52.42],[16.0,51.92],[16.0,51.42],[16.0,50.93],[16.0,50.43],[16.0,49.93],[16.0,49.43],[16.0,48.94],[16.0,48.44],[16.0,47.94],[16.0,47.44],[16.0,46.95],[16.0,46.45],[16.0,45.95],[16.0,45.46],[16.0,44.96],[16.0,44.46],[16.0,43.96],[16.0,43.47],[16.0,42.97],[16.0,42.47],[16.0,41.98],[16.0,41.48],[16.0,40.98],[16.0,40.48],[16.0,39.99],[16.0,39.49],[16.0,38.99],[16.0,38.49],[16.0,38.0],[16.0,37.5],[15.5,37.5]]]}}
