{"type":"Feature","properties":{},"geometry":{"type":"MultiPolygon","coordinates":[[[[-7.52,56.94],[-7.49,56.94],[-7.49,56.93],[-7.53,56.93],[-7.52,56.91],[-7.57,56.93],[-7.51,56.99],[-7.53,57.01],[-7.46,57.02],[-7.45,57.06],[-7.42,57.04],[-7.45,57.02],[-7.4,57.0],[-7.42,57.0],[-7.41,56.99],[-7.41,56.98],[-7.42,56.97],[-7.44,56.96],[-7.44,56.95],[-7.49,56.95],[-7.53,56.95],[-7.53,56.94],[-7.52,56.94]]],[[[-7.36,57.24],[-7.35,57.23],[-7.27,57.21],[-7.26,57.21],[-7.26,57.19],[-7.25,57.19],[-7.24,57.16],[-7.34,57.15],[-7.35,57.15],[-7.34,57.14],[-7.33,57.14],[-7.32,57.14],[-7.26,57.14],[-7.25,57.14],[-7.21,57.12],[-7.23,57.1],[-7.27,57.1],[-7.39,57.11],[-7.46,57.24],[-7.39,57.3],[-7.43,57.39],[-7.27,57.37],[-7.3,57.37],[-7.25,57.35],[-7.26,57.35],[-7.27,57.34],[-7.23,57.34],[-7.23,57.33],[-7.24,57.33],[-7.25,57.33],[-7.26,57.33],[-7.25,57.32],[-7.19,57.3],[-7.27,57.22],[-7.3,57.24],[-7.31,57.24],[-7.34,57.23],[-7.35,57.24],[-7.36,57.24]]],[[[-7.24,57.46],[-7.24,57.45],[-7.25,57.45],[-7.25,57.44],[-7.26,57.44],[-7.26,57.45],[-7.27,57.44],[-7.21,57.42],[-7.31,57.42],[-7.27,57.41],[-7.27,57.4],[-7.28,57.4],[-7.34,57.42],[-7.36,57.42],[-7.39,57.42],[-7.41,57.45],[-7.35,57.49],[-7.34,57.49],[-7.34,57.48],[-7.29,57.48],[-7.28,57.48],[-7.27,57.47],[-7.27,57.46],[-7.24,57.46]]],[[[-7.3,57.56],[-7.31,57.55],[-7.44,57.59],[-7.48,57.57],[-7.55,57.61],[-7.54,57.61],[-7.52,57.6],[-7.52,57.61],[-7.48,57.66],[-7.43,57.65],[-7.38,57.63],[-7.31,57.69],[-7.34,57.66],[-7.28,57.64],[-7.27,57.65],[-7.25,57.65],[-7.27,57.66],[-7.28,57.66],[-7.21,57.68],[-7.21,57.69],[-7.2,57.69],[-7.16,57.68],[-7.16,57.67],[-7.18,57.66],[-7.19,57.66],[-7.19,57.65],[-7.19,57.64],[-7.2,57.64],[-7.21,57.64],[-7.2,57.62],[-7.19,57.62],[-7.18,57.62],[-7.17,57.62],[-7.15,57.61],[-7.18,57.61],[-7.16,57.6],[-7.19,57.59],[-7.16,57.59],[-7.15,57.59],[-7.1,57.59],[-7.14,57.56],[-7.26,57.55],[-7.27,57.56],[-7.25,57.56],[-7.26,57.57],[-7.29,57.56],[-7.3,57.56]]],[[[-7.29,57.55],[-7.28,57.55],[-7.27,57.55],[-7.26,57.55],[-7.17,57.55],[-7.14,57.55],[-7.17,57.51],[-7.18,57.51],[-7.22,57.52],[-7.21,57.51],[-7.22,57.51],[-7.25,57.51],[-7.27,57.52],[-7.27,57.51],[-7.28,57.51],[-7.28,57.52],[-7.31,57.52],[-7.31,57.51],[-7.32,57.52],[-7.33,57.53],[-7.33,57.54],[-7.35,57.54],[-7.36,57.5],[-7.37,57.5],[-7.38,57.52],[-7.4,57.54],[-7.4,57.55],[-7.31,57.55],[-7.29,57.55]]],[[[-7.13,58.14],[-7.09,58.16],[-7.1,58.19],[-7.04,58.17],[-7.01,58.18],[-7.05,58.19],[-7.06,58.19],[-7.06,58.2],[-7.06,58.21],[-7.03,58.24],[-6.94,58.22],[-6.92,58.22],[-6.91,58.21],[-6.96,58.2],[-6.93,58.19],[-6.92,58.19],[-6.9,58.19],[-6.89,58.19],[-6.89,58.18],[-6.89,58.16],[-6.88,58.17],[-6.87,58.17],[-6.88,58.18],[-6.88,58.19],[-6.87,58.19],[-6.86,58.18],[-6.72,58.17],[-6.71,58.18],[-6.77,58.22],[-6.8,58.24],[-6.81,58.25],[-6.77,58.28],[-6.83,58.28],[-6.84,58.29],[-6.83,58.29],[-6.8,58.3],[-6.71,58.33],[-6.55,58.37],[-6.46,58.42],[-6.28,58.51],[-6.27,58.51],[-6.22,58.5],[-6.23,58.49],[-6.22,58.49],[-6.21,58.48],[-6.18,58.47],[-6.2,58.45],[-6.17,58.43],[-6.22,58.37],[-6.17,58.34],[-6.19,58.34],[-6.2,58.34],[-6.24,58.3],[-6.26,58.29],[-6.27,58.29],[-6.3,58.29],[-6.28,58.27],[-6.38,58.23],[-6.28,58.21],[-6.14,58.26],[-6.16,58.21],[-6.26,58.18],[-6.39,58.21],[-6.37,58.15],[-6.42,58.15],[-6.42,58.14],[-6.49,58.14],[-6.43,58.12],[-6.52,58.1],[-6.53,58.1],[-6.58,58.09],[-6.57,58.08],[-6.51,58.09],[-6.47,58.09],[-6.47,58.1],[-6.43,58.09],[-6.4,58.11],[-6.39,58.1],[-6.38,58.09],[-6.37,58.06],[-6.44,58.05],[-6.36,58.04],[-6.37,58.02],[-6.39,58.0],[-6.41,58.0],[-6.45,58.0],[-6.44,58.01],[-6.46,58.02],[-6.58,58.0],[-6.47,58.0],[-6.45,57.97],[-6.52,57.93],[-6.55,57.96],[-6.54,57.92],[-6.57,57.91],[-6.6,57.93],[-6.65,57.96],[-6.61,57.92],[-6.63,57.92],[-6.65,57.92],[-6.71,57.97],[-6.71,58.01],[-6.67,58.04],[-6.76,58.0],[-6.67,57.88],[-6.8,57.9],[-6.8,57.87],[-6.74,57.83],[-6.8,57.83],[-6.79,57.81],[-6.81,57.81],[-6.86,57.83],[-6.83,57.81],[-6.87,57.8],[-6.88,57.8],[-6.87,57.77],[-6.92,57.78],[-6.9,57.76],[-6.93,57.76],[-6.94,57.76],[-6.94,57.75],[-6.94,57.74],[-6.98,57.74],[-7.01,57.77],[-7.08,57.81],[-6.99,57.87],[-6.91,57.87],[-6.96,57.89],[-6.95,57.9],[-6.81,57.9],[-6.9,57.95],[-7.11,57.99],[-7.09,58.02],[-7.08,58.02],[-6.91,58.05],[-7.05,58.04],[-7.02,58.05],[-7.05,58.06],[-7.02,58.07],[-7.1,58.07],[-7.1,58.08],[-7.1,58.09],[-7.11,58.1],[-7.11,58.11],[-7.13,58.13],[-7.13,58.14]],[[-6.89,58.15],[-6.86,58.11],[-6.89,58.16],[-6.89,58.15]],[[-6.62,58.08],[-6.61,58.08],[-6.58,58.09],[-6.62,58.08]],[[-6.66,58.04],[-6.66,58.05],[-6.62,58.05],[-6.7,58.06],[-6.67,58.04],[-6.66,58.04]]],[[[-6.88,56.49],[-6.91,56.44],[-6.98,56.45],[-7.0,56.5],[-6.73,56.54],[-6.8,56.52],[-6.88,56.49]]],[[[-6.64,57.45],[-6.64,57.44],[-6.63,57.44],[-6.62,57.44],[-6.57,57.43],[-6.6,57.45],[-6.64,57.5],[-6.56,57.51],[-6.65,57.55],[-6.63,57.61],[-6.47,57.5],[-6.43,57.52],[-6.45,57.48],[-6.43,57.47],[-6.4,57.53],[-6.31,57.46],[-6.32,57.48],[-6.3,57.48],[-6.4,57.56],[-6.36,57.59],[-6.39,57.59],[-6.43,57.64],[-6.35,57.67],[-6.34,57.69],[-6.35,57.69],[-6.35,57.71],[-6.3,57.71],[-6.23,57.66],[-6.21,57.65],[-6.21,57.64],[-6.2,57.64],[-6.14,57.59],[-6.14,57.47],[-6.2,57.39],[-6.14,57.41],[-6.15,57.37],[-6.1,57.34],[-6.17,57.3],[-6.06,57.31],[-6.04,57.29],[-6.08,57.27],[-6.02,57.29],[-5.98,57.27],[-5.89,57.24],[-5.75,57.27],[-5.67,57.26],[-5.67,57.21],[-5.81,57.18],[-5.8,57.12],[-6.02,57.02],[-6.04,57.06],[-6.0,57.07],[-6.0,57.12],[-5.9,57.17],[-5.89,57.17],[-5.84,57.19],[-5.99,57.17],[-6.04,57.23],[-6.03,57.18],[-6.08,57.13],[-6.09,57.13],[-6.12,57.19],[-6.16,57.2],[-6.17,57.2],[-6.17,57.17],[-6.31,57.16],[-6.32,57.16],[-6.28,57.2],[-6.34,57.19],[-6.39,57.22],[-6.35,57.23],[-6.34,57.25],[-6.4,57.23],[-6.48,57.29],[-6.43,57.34],[-6.35,57.3],[-6.31,57.3],[-6.4,57.34],[-6.38,57.36],[-6.46,57.34],[-6.49,57.4],[-6.52,57.37],[-6.52,57.39],[-6.54,57.41],[-6.58,57.33],[-6.79,57.42],[-6.78,57.46],[-6.72,57.45],[-6.75,57.48],[-6.72,57.51],[-6.65,57.45],[-6.64,57.45]]],[[[-6.38,56.29],[-6.37,56.3],[-6.37,56.31],[-6.36,56.34],[-6.35,56.35],[-6.25,56.32],[-6.24,56.32],[-6.25,56.34],[-6.21,56.33],[-6.19,56.33],[-6.1,56.34],[-5.98,56.39],[-6.19,56.36],[-6.21,56.39],[-6.13,56.45],[-6.05,56.45],[-6.0,56.49],[-6.12,56.47],[-6.13,56.47],[-6.15,56.49],[-6.15,56.48],[-6.16,56.49],[-6.23,56.53],[-6.33,56.53],[-6.28,56.58],[-6.32,56.61],[-6.19,56.58],[-6.23,56.63],[-6.13,56.66],[-6.07,56.64],[-6.07,56.62],[-5.96,56.54],[-5.72,56.49],[-5.65,56.46],[-5.65,56.42],[-5.68,56.38],[-5.73,56.4],[-5.79,56.37],[-5.7,56.37],[-5.83,56.31],[-5.84,56.31],[-5.89,56.32],[-5.86,56.34],[-5.85,56.35],[-5.87,56.35],[-5.88,56.36],[-6.04,56.29],[-6.18,56.29],[-6.25,56.29],[-6.26,56.26],[-6.29,56.27],[-6.35,56.3],[-6.36,56.28],[-6.38,56.29]],[[-5.68,56.44],[-5.69,56.43],[-5.65,56.42],[-5.68,56.44]]],[[[-6.62,56.58],[-6.71,56.58],[-6.46,56.69],[-6.45,56.69],[-6.45,56.67],[-6.51,56.62],[-6.52,56.62],[-6.52,56.61],[-6.53,56.61],[-6.56,56.59],[-6.57,56.59],[-6.58,56.59],[-6.61,56.58],[-6.62,56.58]]],[[[-6.33,56.94],[-6.46,57.01],[-6.33,57.06],[-6.26,57.04],[-6.25,57.02],[-6.28,57.01],[-6.24,57.0],[-6.33,56.94]]],[[[-6.04,55.67],[-6.05,55.67],[-6.07,55.66],[-6.07,55.64],[-6.08,55.64],[-6.09,55.65],[-6.15,55.63],[-6.22,55.63],[-6.27,55.58],[-6.34,55.59],[-6.3,55.65],[-6.26,55.66],[-6.34,55.72],[-6.25,55.77],[-6.26,55.78],[-6.27,55.78],[-6.35,55.78],[-6.49,55.67],[-6.51,55.68],[-6.53,55.69],[-6.46,55.75],[-6.46,55.78],[-6.49,55.79],[-6.45,55.85],[-6.35,55.89],[-6.33,55.89],[-6.35,55.83],[-6.32,55.82],[-6.32,55.87],[-6.13,55.94],[-6.1,55.81],[-6.02,55.68],[-6.04,55.68],[-6.04,55.67]]],[[[-6.2,56.46],[-6.21,56.47],[-6.22,56.47],[-6.27,56.48],[-6.28,56.47],[-6.3,56.49],[-6.31,56.5],[-6.3,56.5],[-6.25,56.49],[-6.22,56.5],[-6.15,56.48],[-6.14,56.47],[-6.2,56.46]]],[[[-6.14,56.94],[-6.11,56.92],[-6.14,56.87],[-6.21,56.89],[-6.14,56.94]]],[[[-6.08,57.44],[-6.02,57.45],[-6.03,57.43],[-5.99,57.36],[-6.05,57.33],[-6.08,57.35],[-6.08,57.44]]],[[[-5.66,55.89],[-5.68,55.89],[-5.69,55.9],[-5.69,55.91],[-5.57,56.02],[-5.57,56.03],[-5.57,56.04],[-5.59,56.04],[-5.71,55.95],[-5.65,56.03],[-5.64,56.04],[-5.58,56.09],[-5.57,56.09],[-5.53,56.07],[-5.51,56.07],[-5.51,56.08],[-5.54,56.09],[-5.54,56.1],[-5.57,56.11],[-5.56,56.13],[-5.54,56.16],[-5.51,56.19],[-5.53,56.19],[-5.53,56.18],[-5.57,56.16],[-5.58,56.16],[-5.6,56.13],[-5.61,56.13],[-5.54,56.22],[-5.57,56.24],[-5.48,56.26],[-5.51,56.27],[-5.55,56.26],[-5.6,56.25],[-5.58,56.28],[-5.58,56.33],[-5.55,56.35],[-5.52,56.34],[-5.44,56.36],[-5.54,56.36],[-5.5,56.41],[-5.55,56.37],[-5.56,56.38],[-5.57,56.38],[-5.58,56.38],[-5.54,56.41],[-5.5,56.43],[-5.49,56.42],[-5.47,56.45],[-5.35,56.46],[-5.24,56.44],[-5.23,56.44],[-5.19,56.45],[-5.06,56.56],[-5.23,56.45],[-5.32,56.46],[-5.35,56.47],[-5.41,56.46],[-5.42,56.51],[-5.47,56.48],[-5.42,56.53],[-5.42,56.54],[-5.3,56.64],[-5.32,56.65],[-5.22,56.69],[-5.14,56.68],[-5.13,56.68],[-4.97,56.71],[-5.13,56.69],[-5.16,56.69],[-5.25,56.7],[-5.09,56.83],[-5.19,56.86],[-5.34,56.86],[-5.12,56.83],[-5.24,56.77],[-5.24,56.72],[-5.31,56.71],[-5.47,56.62],[-5.53,56.62],[-5.49,56.61],[-5.55,56.55],[-5.69,56.5],[-5.7,56.51],[-5.77,56.53],[-5.75,56.56],[-5.78,56.53],[-5.87,56.55],[-5.88,56.55],[-5.9,56.55],[-6.0,56.65],[-5.91,56.66],[-5.9,56.66],[-5.9,56.65],[-5.89,56.64],[-5.83,56.62],[-5.88,56.65],[-5.87,56.66],[-5.84,56.67],[-5.9,56.68],[-5.94,56.69],[-5.95,56.69],[-5.97,56.67],[-6.11,56.7],[-6.18,56.69],[-6.23,56.73],[-6.21,56.73],[-5.97,56.78],[-5.84,56.74],[-5.89,56.79],[-5.88,56.79],[-5.86,56.81],[-5.81,56.79],[-5.82,56.79],[-5.83,56.79],[-5.87,56.79],[-5.75,56.78],[-5.86,56.82],[-5.84,56.83],[-5.72,56.84],[-5.72,56.85],[-5.73,56.85],[-5.74,56.85],[-5.76,56.86],[-5.78,56.86],[-5.75,56.89],[-5.74,56.9],[-5.8,56.89],[-5.81,56.88],[-5.81,56.89],[-5.92,56.89],[-5.84,56.91],[-5.88,56.92],[-5.86,56.94],[-5.82,56.96],[-5.85,56.97],[-5.83,57.01],[-5.73,57.02],[-5.63,56.97],[-5.51,56.99],[-5.52,57.01],[-5.53,57.0],[-5.62,56.98],[-5.63,56.99],[-5.68,57.04],[-5.79,57.05],[-5.72,57.12],[-5.59,57.12],[-5.58,57.11],[-5.57,57.1],[-5.52,57.08],[-5.38,57.11],[-5.42,57.12],[-5.45,57.11],[-5.53,57.1],[-5.56,57.13],[-5.69,57.17],[-5.63,57.2],[-5.66,57.23],[-5.64,57.25],[-5.58,57.26],[-5.54,57.27],[-5.42,57.22],[-5.39,57.23],[-5.52,57.27],[-5.49,57.3],[-5.49,57.31],[-5.58,57.27],[-5.59,57.27],[-5.71,57.28],[-5.73,57.28],[-5.67,57.33],[-5.69,57.34],[-5.6,57.35],[-5.53,57.35],[-5.49,57.39],[-5.55,57.36],[-5.64,57.37],[-5.59,57.39],[-5.61,57.42],[-5.73,57.35],[-5.82,57.36],[-5.81,57.44],[-5.87,57.47],[-5.84,57.58],[-5.74,57.54],[-5.71,57.56],[-5.7,57.53],[-5.69,57.53],[-5.66,57.52],[-5.65,57.51],[-5.66,57.53],[-5.66,57.54],[-5.67,57.55],[-5.76,57.62],[-5.82,57.64],[-5.79,57.7],[-5.69,57.69],[-5.68,57.69],[-5.67,57.7],[-5.71,57.71],[-5.79,57.74],[-5.81,57.75],[-5.81,57.86],[-5.68,57.86],[-5.67,57.8],[-5.6,57.77],[-5.62,57.79],[-5.58,57.79],[-5.58,57.84],[-5.66,57.88],[-5.62,57.92],[-5.47,57.85],[-5.42,57.91],[-5.21,57.85],[-5.41,57.93],[-5.36,57.94],[-5.13,57.87],[-5.07,57.82],[-5.1,57.87],[-5.22,57.93],[-5.18,57.94],[-5.17,57.96],[-5.31,57.98],[-5.35,58.0],[-5.42,58.05],[-5.46,58.08],[-5.43,58.11],[-5.36,58.06],[-5.35,58.08],[-5.3,58.06],[-5.27,58.1],[-5.29,58.11],[-5.3,58.12],[-5.26,58.12],[-5.3,58.14],[-5.24,58.15],[-5.31,58.16],[-5.28,58.17],[-5.4,58.24],[-5.38,58.26],[-5.31,58.22],[-5.24,58.25],[-5.23,58.25],[-5.22,58.25],[-5.21,58.25],[-5.2,58.25],[-5.16,58.23],[-5.17,58.26],[-5.12,58.25],[-5.11,58.27],[-5.08,58.26],[-5.15,58.32],[-5.18,58.35],[-5.15,58.35],[-5.18,58.36],[-5.14,58.39],[-5.14,58.41],[-5.13,58.41],[-5.11,58.4],[-5.1,58.4],[-5.08,58.39],[-5.07,58.39],[-5.05,58.38],[-5.05,58.37],[-5.02,58.38],[-5.04,58.39],[-5.05,58.4],[-5.07,58.4],[-5.06,58.41],[-5.1,58.42],[-5.12,58.43],[-4.99,58.44],[-5.08,58.47],[-5.1,58.48],[-5.13,58.49],[-5.01,58.58],[-5.01,58.63],[-5.0,58.63],[-4.82,58.6],[-4.82,58.56],[-4.81,58.56],[-4.8,58.57],[-4.77,58.58],[-4.79,58.6],[-4.65,58.55],[-4.65,58.53],[-4.72,58.49],[-4.76,58.45],[-4.75,58.45],[-4.61,58.51],[-4.58,58.58],[-4.5,58.58],[-4.46,58.55],[-4.45,58.55],[-4.43,58.55],[-4.41,58.53],[-4.41,58.52],[-4.45,58.5],[-4.49,58.44],[-4.48,58.44],[-4.45,58.46],[-4.34,58.54],[-4.21,58.51],[-4.24,58.54],[-4.21,58.53],[-4.21,58.55],[-4.18,58.54],[-4.17,58.55],[-4.16,58.55],[-4.15,58.56],[-4.13,58.57],[-4.1,58.56],[-4.07,58.55],[-4.05,58.58],[-4.03,58.59],[-4.02,58.6],[-4.0,58.56],[-3.93,58.57],[-3.9,58.54],[-3.91,58.56],[-3.78,58.56],[-3.66,58.62],[-3.54,58.62],[-3.53,58.59],[-3.46,58.61],[-3.37,58.59],[-3.35,58.62],[-3.41,58.64],[-3.38,58.67],[-3.31,58.64],[-3.02,58.64],[-3.07,58.56],[-3.15,58.51],[-3.1,58.47],[-3.05,58.48],[-3.06,58.44],[-3.12,58.45],[-3.07,58.43],[-3.11,58.37],[-3.21,58.31],[-3.38,58.27],[-3.51,58.17],[-3.8,58.06],[-3.85,58.01],[-3.98,57.97],[-4.0,57.93],[-4.01,57.86],[-4.23,57.88],[-4.29,57.86],[-4.43,57.94],[-4.3,57.85],[-4.19,57.86],[-4.05,57.82],[-3.97,57.85],[-3.93,57.84],[-3.92,57.84],[-3.89,57.82],[-3.86,57.83],[-3.77,57.87],[-3.98,57.69],[-4.04,57.7],[-4.01,57.74],[-4.17,57.69],[-4.29,57.68],[-4.44,57.57],[-4.23,57.67],[-3.99,57.68],[-4.1,57.61],[-4.09,57.57],[-4.25,57.55],[-4.19,57.54],[-4.23,57.5],[-4.38,57.51],[-4.41,57.5],[-4.19,57.48],[-4.04,57.56],[-4.06,57.59],[-3.86,57.59],[-3.64,57.66],[-3.62,57.66],[-3.35,57.72],[-3.11,57.67],[-2.85,57.71],[-2.83,57.69],[-2.74,57.68],[-2.57,57.68],[-2.53,57.65],[-2.3,57.7],[-2.19,57.67],[-2.16,57.68],[-2.0,57.7],[-1.82,57.61],[-1.81,57.52],[-1.77,57.51],[-1.79,57.49],[-1.78,57.46],[-1.81,57.44],[-1.82,57.43],[-1.99,57.31],[-2.1,57.18],[-2.06,57.15],[-2.09,57.15],[-2.12,57.12],[-2.05,57.13],[-2.07,57.1],[-2.08,57.09],[-2.21,56.97],[-2.2,56.94],[-2.2,56.91],[-2.23,56.86],[-2.44,56.75],[-2.42,56.75],[-2.45,56.7],[-2.51,56.65],[-2.48,56.62],[-2.54,56.57],[-2.73,56.46],[-3.05,56.46],[-3.28,56.36],[-3.38,56.39],[-3.41,56.38],[-3.3,56.35],[-3.34,56.35],[-3.37,56.35],[-3.34,56.34],[-3.27,56.35],[-3.23,56.36],[-2.92,56.45],[-2.82,56.45],[-2.82,56.38],[-2.89,56.37],[-2.89,56.36],[-2.91,56.35],[-2.82,56.37],[-2.6,56.27],[-2.81,56.18],[-2.94,56.21],[-3.01,56.19],[-3.15,56.12],[-3.17,56.06],[-3.4,56.03],[-3.39,56.01],[-3.58,56.06],[-3.68,56.05],[-3.8,56.11],[-3.73,56.06],[-3.72,56.03],[-3.7,56.03],[-3.68,56.04],[-3.69,56.0],[-3.6,56.02],[-3.3,55.98],[-3.18,55.99],[-3.05,55.95],[-2.9,55.98],[-2.81,56.06],[-2.68,56.06],[-2.58,56.02],[-2.6,56.0],[-2.51,56.01],[-2.33,55.93],[-2.14,55.92],[-1.98,55.76],[-2.01,55.77],[-1.84,55.64],[-1.78,55.64],[-1.77,55.6],[-1.69,55.61],[-1.65,55.58],[-1.62,55.55],[-1.64,55.54],[-1.58,55.43],[-1.62,55.39],[-1.57,55.34],[-1.61,55.35],[-1.63,55.35],[-1.55,55.32],[-1.57,55.28],[-1.5,55.19],[-1.54,55.16],[-1.52,55.14],[-1.56,55.13],[-1.5,55.13],[-1.4,55.01],[-1.42,55.01],[-1.36,54.97],[-1.36,54.92],[-1.35,54.92],[-1.31,54.78],[-1.18,54.7],[-1.2,54.68],[-1.16,54.65],[-1.25,54.63],[-1.16,54.61],[-1.25,54.59],[-1.29,54.56],[-1.15,54.6],[-1.15,54.63],[-1.15,54.64],[-1.14,54.65],[-0.77,54.56],[-0.61,54.49],[-0.57,54.48],[-0.37,54.25],[-0.26,54.22],[-0.28,54.2],[-0.23,54.16],[-0.08,54.11],[-0.2,54.08],[-0.21,54.02],[-0.15,53.9],[0.12,53.66],[0.15,53.6],[0.14,53.6],[0.09,53.64],[-0.1,53.64],[-0.24,53.74],[-0.33,53.75],[-0.45,53.71],[-0.63,53.73],[-0.7,53.7],[-0.71,53.63],[-0.71,53.62],[-0.7,53.61],[-0.69,53.7],[-0.61,53.71],[-0.59,53.69],[-0.56,53.69],[-0.52,53.69],[-0.53,53.68],[-0.29,53.71],[0.04,53.51],[0.16,53.48],[0.34,53.24],[0.35,53.11],[0.33,53.09],[0.32,53.09],[0.15,53.01],[0.08,52.93],[-0.04,52.87],[0.07,52.92],[0.18,52.87],[0.21,52.83],[0.21,52.82],[0.21,52.79],[0.22,52.82],[0.35,52.81],[0.39,52.75],[0.36,52.81],[0.44,52.85],[0.49,52.95],[0.54,52.97],[0.58,52.96],[0.59,52.98],[0.64,52.97],[0.67,52.97],[0.7,52.98],[0.7,52.97],[0.72,52.97],[0.71,52.98],[0.73,52.98],[0.75,52.97],[0.77,52.98],[0.84,52.98],[0.85,52.96],[0.86,52.96],[0.87,52.96],[0.87,52.95],[0.89,52.96],[0.89,52.97],[0.9,52.97],[0.9,52.96],[0.95,52.96],[0.96,52.96],[0.99,52.96],[1.0,52.96],[1.02,52.96],[1.05,52.97],[1.34,52.92],[1.68,52.74],[1.74,52.63],[1.74,52.57],[1.73,52.56],[1.76,52.49],[1.76,52.48],[1.76,52.47],[1.75,52.47],[1.68,52.31],[1.67,52.31],[1.63,52.28],[1.62,52.19],[1.6,52.14],[1.55,52.17],[1.49,52.17],[1.5,52.16],[1.51,52.16],[1.51,52.15],[1.59,52.14],[1.54,52.09],[1.51,52.07],[1.49,52.11],[1.5,52.07],[1.48,52.06],[1.47,52.05],[1.46,52.05],[1.45,52.04],[1.39,51.99],[1.32,51.93],[1.28,51.99],[1.19,52.02],[1.17,52.02],[1.28,51.96],[1.05,51.95],[1.29,51.95],[1.23,51.9],[1.22,51.9],[1.18,51.87],[1.27,51.85],[1.24,51.82],[1.04,51.77],[1.02,51.8],[1.03,51.8],[1.04,51.8],[1.05,51.8],[1.06,51.81],[1.07,51.82],[1.01,51.81],[0.98,51.83],[0.98,51.82],[0.97,51.82],[0.97,51.81],[0.92,51.81],[0.91,51.8],[0.9,51.8],[0.89,51.79],[0.89,51.78],[0.88,51.79],[0.83,51.78],[0.89,51.77],[0.84,51.77],[0.87,51.76],[0.85,51.75],[0.85,51.74],[0.84,51.74],[0.66,51.74],[0.71,51.72],[0.71,51.71],[0.77,51.71],[0.74,51.69],[0.78,51.69],[0.79,51.72],[0.82,51.72],[0.83,51.72],[0.85,51.72],[0.88,51.73],[0.93,51.75],[0.95,51.73],[0.94,51.64],[0.76,51.64],[0.75,51.64],[0.75,51.63],[0.74,51.63],[0.74,51.64],[0.73,51.64],[0.65,51.65],[0.66,51.64],[0.6,51.64],[0.57,51.62],[0.87,51.62],[0.83,51.6],[0.71,51.57],[0.81,51.59],[0.79,51.57],[0.82,51.56],[0.83,51.56],[0.85,51.55],[0.79,51.52],[0.67,51.54],[0.65,51.54],[0.64,51.54],[0.61,51.53],[0.64,51.52],[0.52,51.53],[0.51,51.53],[0.52,51.52],[0.53,51.52],[0.54,51.51],[0.43,51.51],[0.43,51.46],[0.38,51.45],[0.44,51.45],[0.48,51.49],[0.69,51.48],[0.72,51.44],[0.68,51.43],[0.67,51.45],[0.66,51.44],[0.66,51.45],[0.64,51.45],[0.63,51.43],[0.61,51.42],[0.54,51.41],[0.56,51.4],[0.58,51.41],[0.58,51.4],[0.59,51.39],[0.6,51.39],[0.63,51.37],[0.65,51.4],[0.67,51.37],[0.72,51.39],[0.7,51.42],[0.71,51.42],[0.72,51.41],[0.73,51.4],[0.76,51.39],[0.74,51.41],[0.74,51.45],[0.79,51.44],[0.9,51.42],[0.95,51.37],[0.9,51.35],[0.9,51.34],[0.88,51.33],[1.1,51.37],[1.44,51.39],[1.42,51.32],[1.38,51.33],[1.35,51.31],[1.37,51.31],[1.4,51.24],[1.38,51.14],[1.03,51.05],[0.98,51.0],[0.98,50.91],[0.74,50.95],[0.77,50.93],[0.67,50.87],[0.38,50.82],[0.24,50.74],[0.06,50.78],[-0.09,50.81],[-0.11,50.81],[-0.16,50.82],[-0.24,50.83],[-0.25,50.83],[-0.25,50.82],[-0.54,50.8],[-0.78,50.77],[-0.75,50.76],[-0.79,50.72],[-0.92,50.78],[-0.84,50.8],[-0.86,50.84],[-0.88,50.81],[-0.93,50.85],[-1.0,50.85],[-1.02,50.83],[-1.04,50.84],[-1.08,50.84],[-1.03,50.8],[-1.11,50.79],[-1.14,50.77],[-1.31,50.84],[-1.31,50.85],[-1.38,50.89],[-1.37,50.91],[-1.38,50.92],[-1.39,50.88],[-1.47,50.92],[-1.31,50.81],[-1.34,50.79],[-1.38,50.78],[-1.39,50.78],[-1.4,50.78],[-1.41,50.8],[-1.41,50.78],[-1.54,50.76],[-1.53,50.74],[-1.58,50.72],[-1.55,50.71],[-1.77,50.74],[-1.79,50.73],[-1.77,50.73],[-1.74,50.72],[-1.95,50.68],[-1.94,50.7],[-2.0,50.73],[-2.01,50.73],[-1.99,50.71],[-2.03,50.73],[-2.04,50.73],[-2.05,50.73],[-2.05,50.72],[-2.08,50.69],[-2.07,50.69],[-2.03,50.71],[-2.05,50.68],[-1.98,50.66],[-1.94,50.67],[-1.95,50.65],[-1.92,50.64],[-1.96,50.59],[-2.06,50.58],[-2.13,50.61],[-2.39,50.64],[-2.47,50.58],[-2.5,50.6],[-2.79,50.72],[-2.92,50.73],[-3.23,50.68],[-3.36,50.61],[-3.43,50.62],[-3.43,50.61],[-3.5,50.54],[-3.51,50.48],[-3.48,50.46],[-3.56,50.43],[-3.55,50.41],[-3.48,50.4],[-3.52,50.35],[-3.57,50.35],[-3.58,50.39],[-3.63,50.41],[-3.66,50.39],[-3.59,50.39],[-3.6,50.36],[-3.56,50.34],[-3.65,50.28],[-3.64,50.22],[-3.72,50.2],[-3.77,50.22],[-3.72,50.25],[-3.76,50.24],[-3.72,50.27],[-3.76,50.25],[-3.76,50.28],[-3.78,50.21],[-3.82,50.22],[-3.88,50.28],[-3.87,50.28],[-3.84,50.31],[-3.89,50.28],[-3.9,50.28],[-3.95,50.3],[-3.93,50.34],[-4.04,50.29],[-4.08,50.3],[-4.06,50.31],[-4.12,50.32],[-4.14,50.36],[-4.15,50.36],[-4.19,50.37],[-4.2,50.39],[-4.24,50.36],[-4.18,50.36],[-4.19,50.32],[-4.28,50.36],[-4.45,50.35],[-4.46,50.37],[-4.47,50.38],[-4.47,50.33],[-4.64,50.33],[-4.61,50.34],[-4.64,50.36],[-4.61,50.36],[-4.66,50.39],[-4.65,50.33],[-4.76,50.33],[-4.8,50.22],[-4.86,50.24],[-4.96,50.2],[-5.01,50.14],[-4.99,50.18],[-5.02,50.15],[-5.03,50.2],[-5.03,50.21],[-5.1,50.21],[-5.05,50.17],[-5.1,50.17],[-5.04,50.14],[-5.1,50.1],[-5.16,50.11],[-5.19,50.08],[-5.11,50.09],[-5.06,50.05],[-5.2,49.96],[-5.25,49.98],[-5.26,50.03],[-5.32,50.08],[-5.46,50.12],[-5.48,50.12],[-5.53,50.13],[-5.58,50.05],[-5.68,50.04],[-5.72,50.07],[-5.67,50.17],[-5.5,50.22],[-5.44,50.18],[-5.4,50.24],[-5.33,50.24],[-5.15,50.35],[-5.15,50.4],[-5.08,50.4],[-5.12,50.41],[-5.04,50.44],[-5.04,50.55],[-4.95,50.57],[-4.94,50.51],[-4.84,50.52],[-4.85,50.53],[-4.86,50.53],[-4.86,50.54],[-4.93,50.54],[-4.93,50.59],[-4.8,50.6],[-4.76,50.67],[-4.57,50.78],[-4.57,50.9],[-4.53,51.02],[-4.35,50.99],[-4.22,51.07],[-4.19,51.05],[-4.21,51.01],[-4.19,51.0],[-4.15,51.08],[-4.05,51.06],[-4.12,51.09],[-4.22,51.08],[-4.26,51.14],[-4.22,51.15],[-4.23,51.19],[-3.79,51.25],[-3.62,51.22],[-3.54,51.23],[-3.39,51.18],[-3.02,51.22],[-3.03,51.19],[-2.98,51.22],[-3.04,51.33],[-3.0,51.33],[-2.99,51.31],[-2.98,51.39],[-2.89,51.39],[-2.91,51.4],[-2.85,51.46],[-2.73,51.5],[-2.62,51.45],[-2.72,51.51],[-2.48,51.73],[-2.61,51.67],[-2.65,51.61],[-2.66,51.62],[-2.71,51.58],[-2.95,51.54],[-2.98,51.55],[-3.13,51.5],[-3.16,51.45],[-3.17,51.41],[-3.2,51.4],[-3.41,51.38],[-3.56,51.4],[-3.63,51.47],[-3.72,51.48],[-3.82,51.57],[-3.8,51.57],[-3.82,51.58],[-3.8,51.58],[-3.79,51.6],[-3.85,51.61],[-3.85,51.62],[-3.99,51.6],[-3.99,51.56],[-4.1,51.58],[-4.21,51.54],[-4.31,51.56],[-4.31,51.61],[-4.25,51.65],[-4.25,51.62],[-4.21,51.62],[-4.22,51.63],[-4.22,51.64],[-4.21,51.63],[-4.17,51.62],[-4.07,51.65],[-4.06,51.66],[-4.08,51.66],[-4.15,51.65],[-4.2,51.68],[-4.34,51.69],[-4.36,51.72],[-4.38,51.73],[-4.36,51.73],[-4.35,51.73],[-4.35,51.72],[-4.34,51.72],[-4.33,51.72],[-4.32,51.72],[-4.3,51.73],[-4.38,51.76],[-4.33,51.8],[-4.4,51.76],[-4.44,51.77],[-4.44,51.78],[-4.45,51.8],[-4.5,51.81],[-4.45,51.77],[-4.42,51.74],[-4.66,51.73],[-4.7,51.71],[-4.71,51.65],[-4.86,51.65],[-4.93,51.6],[-5.06,51.62],[-5.07,51.66],[-5.12,51.68],[-4.94,51.67],[-4.98,51.69],[-4.89,51.69],[-4.92,51.7],[-4.89,51.71],[-5.17,51.73],[-5.15,51.7],[-5.18,51.68],[-5.25,51.74],[-5.1,51.78],[-5.13,51.86],[-5.2,51.86],[-5.32,51.87],[-5.29,51.91],[-5.09,51.97],[-5.07,52.03],[-4.99,52.03],[-4.97,52.0],[-4.91,52.04],[-4.81,52.02],[-4.85,52.04],[-4.73,52.12],[-4.68,52.09],[-4.69,52.13],[-4.52,52.14],[-4.38,52.22],[-4.21,52.26],[-4.07,52.4],[-4.09,52.41],[-4.06,52.53],[-4.04,52.5],[-4.04,52.53],[-3.93,52.55],[-4.07,52.54],[-4.13,52.61],[-4.06,52.69],[-4.06,52.71],[-4.05,52.72],[-4.06,52.72],[-4.15,52.81],[-4.13,52.82],[-4.11,52.83],[-4.15,52.9],[-4.08,52.9],[-4.08,52.91],[-4.04,52.93],[-4.1,52.91],[-4.13,52.93],[-4.41,52.89],[-4.48,52.85],[-4.51,52.83],[-4.49,52.79],[-4.53,52.78],[-4.59,52.82],[-4.69,52.79],[-4.7,52.79],[-4.73,52.78],[-4.77,52.8],[-4.65,52.91],[-4.35,53.03],[-4.35,53.11],[-4.32,53.12],[-4.31,53.12],[-4.27,53.13],[-4.21,53.18],[-4.2,53.21],[-4.22,53.19],[-4.32,53.14],[-4.33,53.17],[-4.33,53.13],[-4.41,53.13],[-4.42,53.16],[-4.44,53.16],[-4.51,53.19],[-4.51,53.24],[-4.55,53.25],[-4.55,53.26],[-4.57,53.27],[-4.59,53.28],[-4.55,53.31],[-4.58,53.33],[-4.56,53.37],[-4.58,53.4],[-4.43,53.43],[-4.29,53.42],[-4.27,53.39],[-4.3,53.36],[-4.23,53.36],[-4.2,53.29],[-4.04,53.31],[-4.18,53.22],[-4.17,53.22],[-3.85,53.3],[-3.88,53.33],[-3.87,53.34],[-3.71,53.29],[-3.51,53.32],[-3.51,53.31],[-3.33,53.36],[-3.11,53.24],[-3.09,53.24],[-3.06,53.23],[-3.09,53.26],[-3.1,53.27],[-3.06,53.27],[-3.2,53.39],[-3.04,53.44],[-2.96,53.33],[-2.88,53.29],[-2.79,53.3],[-2.75,53.34],[-2.68,53.35],[-2.67,53.36],[-2.76,53.35],[-2.79,53.32],[-2.88,53.33],[-2.98,53.39],[-3.06,53.53],[-3.11,53.55],[-2.98,53.7],[-2.97,53.7],[-2.97,53.69],[-2.96,53.69],[-2.94,53.73],[-2.83,53.71],[-2.85,53.74],[-2.72,53.76],[-3.0,53.74],[-3.06,53.8],[-3.04,53.92],[-3.01,53.93],[-3.0,53.93],[-2.84,53.95],[-2.88,53.98],[-2.82,53.99],[-2.83,54.04],[-2.84,54.04],[-2.85,54.04],[-2.84,54.01],[-2.88,53.99],[-2.89,53.99],[-2.92,54.03],[-2.82,54.09],[-2.8,54.12],[-2.79,54.14],[-2.82,54.12],[-2.87,54.18],[-2.79,54.23],[-2.97,54.15],[-3.02,54.13],[-3.0,54.15],[-3.01,54.16],[-2.99,54.18],[-3.04,54.2],[-3.06,54.16],[-3.17,54.08],[-3.24,54.1],[-3.26,54.17],[-3.18,54.24],[-3.22,54.28],[-3.27,54.21],[-3.24,54.2],[-3.33,54.2],[-3.42,54.29],[-3.42,54.34],[-3.4,54.33],[-3.37,54.35],[-3.37,54.36],[-3.44,54.34],[-3.64,54.52],[-3.58,54.57],[-3.58,54.65],[-3.43,54.77],[-3.4,54.87],[-3.37,54.89],[-3.36,54.89],[-3.28,54.86],[-3.29,54.88],[-3.29,54.89],[-3.27,54.9],[-3.31,54.92],[-3.23,54.95],[-3.13,54.93],[-3.1,54.97],[-3.04,54.97],[-3.05,54.99],[-3.15,54.96],[-3.27,54.97],[-3.43,54.99],[-3.44,54.99],[-3.52,54.97],[-3.56,54.98],[-3.58,55.01],[-3.59,54.93],[-3.56,54.91],[-3.59,54.87],[-3.69,54.89],[-3.79,54.85],[-3.8,54.86],[-3.82,54.89],[-3.84,54.89],[-3.81,54.85],[-3.84,54.87],[-3.84,54.85],[-3.86,54.85],[-3.82,54.82],[-3.98,54.77],[-4.06,54.78],[-4.05,54.82],[-4.07,54.82],[-4.1,54.77],[-4.22,54.82],[-4.22,54.83],[-4.22,54.85],[-4.18,54.88],[-4.19,54.89],[-4.27,54.84],[-4.36,54.86],[-4.41,54.93],[-4.44,54.93],[-4.4,54.89],[-4.47,54.86],[-4.42,54.86],[-4.41,54.83],[-4.34,54.8],[-4.37,54.77],[-4.35,54.71],[-4.39,54.68],[-4.86,54.87],[-4.96,54.8],[-4.86,54.63],[-4.96,54.66],[-4.96,54.73],[-5.15,54.86],[-5.19,54.92],[-5.17,55.0],[-5.1,55.02],[-5.06,54.92],[-4.99,54.92],[-5.06,55.03],[-5.0,55.14],[-4.87,55.22],[-4.84,55.28],[-4.85,55.33],[-4.77,55.36],[-4.75,55.42],[-4.62,55.46],[-4.64,55.47],[-4.63,55.52],[-4.69,55.55],[-4.66,55.57],[-4.7,55.6],[-4.68,55.61],[-4.68,55.62],[-4.71,55.63],[-4.7,55.61],[-4.82,55.64],[-4.85,55.65],[-4.91,55.7],[-4.86,55.76],[-4.9,55.89],[-4.88,55.94],[-4.78,55.96],[-4.75,55.94],[-4.71,55.94],[-4.68,55.93],[-4.49,55.93],[-4.57,55.96],[-4.57,55.94],[-4.7,55.97],[-4.84,56.08],[-4.83,56.03],[-4.77,55.99],[-4.85,55.99],[-4.88,56.06],[-4.74,56.21],[-4.86,56.1],[-4.9,56.17],[-4.92,56.16],[-4.87,56.09],[-4.91,56.05],[-4.9,55.99],[-4.96,56.01],[-4.91,55.97],[-4.98,55.86],[-5.04,55.87],[-5.12,56.01],[-5.08,55.9],[-5.17,55.93],[-5.18,55.93],[-5.19,55.99],[-5.24,55.89],[-5.2,55.83],[-5.26,55.85],[-5.29,55.85],[-5.31,55.85],[-5.31,55.88],[-5.35,55.9],[-5.33,55.96],[-5.35,55.97],[-5.2,56.13],[-5.33,56.07],[-5.38,56.0],[-5.39,56.0],[-5.4,56.0],[-5.43,56.01],[-5.43,56.03],[-5.44,56.04],[-5.45,55.97],[-5.4,55.87],[-5.42,55.86],[-5.31,55.78],[-5.45,55.71],[-5.48,55.64],[-5.46,55.58],[-5.49,55.58],[-5.55,55.43],[-5.6,55.43],[-5.55,55.42],[-5.52,55.37],[-5.6,55.31],[-5.8,55.31],[-5.8,55.39],[-5.72,55.43],[-5.68,55.68],[-5.48,55.8],[-5.44,55.86],[-5.46,55.84],[-5.61,55.76],[-5.61,55.8],[-5.66,55.8],[-5.66,55.85],[-5.57,55.94],[-5.61,55.93],[-5.64,55.91],[-5.66,55.9],[-5.66,55.89]],[[-5.37,56.52],[-5.39,56.54],[-5.4,56.54],[-5.42,56.53],[-5.37,56.52]],[[-5.36,56.51],[-5.23,56.56],[-5.37,56.52],[-5.36,56.51]],[[-5.75,56.7],[-5.67,56.68],[-5.66,56.68],[-5.69,56.7],[-5.72,56.71],[-5.78,56.72],[-5.84,56.67],[-5.75,56.7]],[[-5.41,57.31],[-5.47,57.32],[-5.49,57.31],[-5.41,57.31]],[[-5.48,57.39],[-5.44,57.42],[-5.49,57.39],[-5.48,57.39]],[[-5.62,57.52],[-5.51,57.54],[-5.66,57.54],[-5.62,57.52]],[[-5.06,58.25],[-5.05,58.25],[-5.01,58.25],[-4.99,58.25],[-4.92,58.26],[-5.02,58.26],[-5.03,58.26],[-5.04,58.26],[-5.08,58.26],[-5.06,58.25]],[[-3.96,57.82],[-3.95,57.81],[-3.89,57.82],[-3.96,57.82]],[[-4.44,57.5],[-4.44,57.48],[-4.41,57.5],[-4.44,57.5]],[[-4.45,57.49],[-4.45,57.48],[-4.44,57.48],[-4.45,57.49]],[[-3.64,57.64],[-3.64,57.63],[-3.59,57.63],[-3.62,57.66],[-3.64,57.64]],[[-1.99,57.35],[-2.0,57.35],[-2.01,57.34],[-1.99,57.31],[-1.99,57.35]],[[-2.54,56.72],[-2.52,56.7],[-2.45,56.7],[-2.54,56.72]],[[-3.82,56.11],[-3.81,56.1],[-3.8,56.11],[-3.82,56.11]],[[-3.85,56.12],[-3.85,56.1],[-3.82,56.1],[-3.82,56.11],[-3.85,56.12]],[[-3.89,56.13],[-3.87,56.11],[-3.85,56.12],[-3.89,56.13]],[[-1.61,54.97],[-1.54,54.96],[-1.42,55.01],[-1.61,54.97]],[[-1.43,54.92],[-1.45,54.91],[-1.36,54.92],[-1.43,54.92]],[[-0.81,53.71],[-0.85,53.69],[-0.7,53.7],[-0.81,53.71]],[[-0.86,53.7],[-0.84,53.71],[-0.85,53.73],[-0.86,53.72],[-0.86,53.73],[-0.87,53.72],[-0.99,53.67],[-0.85,53.69],[-0.86,53.7]],[[1.68,52.48],[1.68,52.47],[1.69,52.47],[1.75,52.47],[1.68,52.48]],[[1.68,52.49],[1.67,52.48],[1.68,52.48],[1.68,52.49]],[[1.36,52.02],[1.32,52.08],[1.34,52.02],[1.36,52.01],[1.39,51.99],[1.36,52.02]],[[1.34,52.1],[1.29,52.08],[1.32,52.08],[1.34,52.1]],[[0.99,51.84],[1.01,51.83],[1.02,51.83],[0.93,51.88],[0.98,51.83],[0.99,51.84]],[[0.96,51.83],[0.95,51.83],[0.94,51.82],[0.97,51.82],[0.96,51.83]],[[0.6,51.54],[0.59,51.54],[0.61,51.53],[0.6,51.54]],[[0.51,51.54],[0.5,51.54],[0.51,51.53],[0.51,51.54]],[[0.32,51.47],[0.28,51.46],[0.22,51.48],[0.28,51.45],[0.36,51.45],[0.38,51.45],[0.32,51.47]],[[0.16,51.51],[0.13,51.51],[0.22,51.48],[0.16,51.51]],[[0.86,51.37],[0.85,51.37],[0.84,51.37],[0.77,51.37],[0.76,51.38],[0.75,51.35],[0.86,51.36],[0.9,51.35],[0.86,51.37]],[[1.34,51.31],[1.33,51.31],[1.33,51.29],[1.33,51.28],[1.34,51.28],[1.35,51.28],[1.36,51.28],[1.36,51.3],[1.35,51.3],[1.35,51.31],[1.34,51.31]],[[0.05,50.8],[0.04,50.81],[0.03,50.82],[0.06,50.78],[0.05,50.8]],[[0.04,50.85],[0.02,50.86],[0.03,50.82],[0.04,50.85]],[[-0.54,50.81],[-0.55,50.81],[-0.54,50.8],[-0.54,50.81]],[[-0.83,50.8],[-0.81,50.83],[-0.84,50.8],[-0.83,50.8]],[[-1.1,50.81],[-1.1,50.82],[-1.1,50.83],[-1.09,50.83],[-1.1,50.85],[-1.18,50.85],[-1.12,50.8],[-1.15,50.79],[-1.11,50.79],[-1.1,50.81]],[[-3.45,50.68],[-3.49,50.69],[-3.43,50.62],[-3.45,50.68]],[[-3.5,50.55],[-3.56,50.55],[-3.59,50.54],[-3.5,50.54],[-3.5,50.55]],[[-4.03,50.31],[-4.05,50.32],[-4.06,50.31],[-4.03,50.31]],[[-4.02,50.34],[-4.05,50.34],[-4.05,50.32],[-4.02,50.34]],[[-4.2,50.4],[-4.15,50.47],[-4.19,50.44],[-4.2,50.44],[-4.24,50.44],[-4.21,50.4],[-4.32,50.39],[-4.2,50.39],[-4.2,50.4]],[[-4.22,50.47],[-4.22,50.46],[-4.2,50.44],[-4.22,50.47]],[[-4.22,50.48],[-4.22,50.5],[-4.24,50.47],[-4.24,50.46],[-4.23,50.46],[-4.22,50.47],[-4.22,50.48]],[[-4.96,50.23],[-5.01,50.23],[-4.99,50.28],[-5.03,50.24],[-5.04,50.23],[-5.03,50.21],[-4.96,50.23]],[[-5.05,50.26],[-5.05,50.25],[-5.03,50.24],[-5.05,50.26]],[[-2.38,51.76],[-2.38,51.78],[-2.45,51.79],[-2.45,51.78],[-2.4,51.77],[-2.48,51.73],[-2.38,51.76]],[[-2.66,51.66],[-2.67,51.66],[-2.68,51.66],[-2.68,51.65],[-2.66,51.62],[-2.66,51.66]],[[-2.67,51.67],[-2.69,51.67],[-2.69,51.66],[-2.68,51.66],[-2.67,51.67]],[[-2.96,51.55],[-2.97,51.56],[-2.98,51.55],[-2.96,51.55]],[[-2.97,51.58],[-2.98,51.58],[-2.99,51.57],[-2.97,51.56],[-2.97,51.58]],[[-3.82,51.63],[-3.84,51.65],[-3.85,51.62],[-3.82,51.63]],[[-4.32,51.8],[-4.32,51.82],[-4.33,51.83],[-4.33,51.8],[-4.32,51.8]],[[-4.32,51.83],[-4.32,51.84],[-4.33,51.83],[-4.32,51.83]],[[-4.31,51.84],[-4.32,51.85],[-4.32,51.84],[-4.31,51.84]],[[-4.88,51.72],[-4.87,51.73],[-4.89,51.75],[-4.81,51.8],[-4.9,51.77],[-4.89,51.71],[-4.88,51.72]],[[-4.84,51.69],[-4.86,51.72],[-4.88,51.72],[-4.84,51.69]],[[-4.1,52.6],[-4.07,52.6],[-4.07,52.61],[-4.13,52.61],[-4.1,52.6]],[[-2.98,53.86],[-2.97,53.86],[-3.0,53.93],[-2.98,53.86]],[[-2.94,53.85],[-2.88,53.86],[-2.97,53.86],[-2.94,53.85]],[[-3.01,54.21],[-3.05,54.24],[-3.03,54.21],[-3.04,54.2],[-3.01,54.21]],[[-3.58,55.02],[-3.6,55.03],[-3.58,55.01],[-3.58,55.02]],[[-3.6,55.06],[-3.61,55.07],[-3.62,55.04],[-3.6,55.03],[-3.6,55.06]],[[-3.82,54.9],[-3.82,54.92],[-3.84,54.9],[-3.84,54.89],[-3.82,54.9]],[[-4.04,54.85],[-4.05,54.85],[-4.03,54.86],[-4.05,54.87],[-4.07,54.82],[-4.04,54.85]],[[-4.45,54.94],[-4.46,54.95],[-4.47,54.95],[-4.46,54.94],[-4.44,54.93],[-4.45,54.94]],[[-4.41,55.88],[-4.27,55.86],[-4.49,55.93],[-4.41,55.88]],[[-5.1,56.16],[-5.06,56.21],[-4.94,56.25],[-4.92,56.27],[-5.05,56.23],[-5.04,56.26],[-5.12,56.17],[-5.2,56.13],[-5.1,56.16]],[[-4.79,58.55],[-4.83,58.52],[-4.81,58.51],[-4.81,58.52],[-4.8,58.52],[-4.8,58.53],[-4.79,58.54],[-4.79,58.55]],[[-2.68,51.7],[-2.67,51.69],[-2.67,51.7],[-2.68,51.7]],[[-2.67,51.68],[-2.66,51.67],[-2.67,51.69],[-2.67,51.68]],[[-2.96,51.6],[-2.95,51.6],[-2.95,51.61],[-2.99,51.61],[-2.96,51.6]],[[-4.82,51.72],[-4.82,51.73],[-4.85,51.72],[-4.82,51.72]],[[-4.93,51.78],[-4.95,51.79],[-4.96,51.8],[-4.95,51.77],[-4.94,51.77],[-4.93,51.78]],[[-3.81,53.27],[-3.83,53.25],[-3.81,53.23],[-3.8,53.27],[-3.81,53.28],[-3.82,53.28],[-3.81,53.27]],[[-2.64,53.37],[-2.64,53.38],[-2.66,53.37],[-2.64,53.37]],[[-3.22,54.9],[-3.21,54.9],[-3.2,54.91],[-3.25,54.91],[-3.22,54.9]],[[-3.26,54.99],[-3.26,55.0],[-3.27,54.99],[-3.26,54.99]],[[-2.11,55.76],[-2.07,55.76],[-2.06,55.76],[-2.05,55.76],[-2.02,55.77],[-2.11,55.76]],[[-2.13,55.74],[-2.12,55.74],[-2.11,55.76],[-2.13,55.74]],[[-0.96,53.74],[-0.92,53.72],[-0.91,53.72],[-0.91,53.73],[-0.96,53.74]],[[-0.96,53.75],[-0.99,53.76],[-0.96,53.74],[-0.96,53.75]],[[-0.99,53.77],[-1.0,53.77],[-1.02,53.76],[-0.99,53.76],[-0.99,53.77]],[[-1.02,53.77],[-1.03,53.78],[-1.06,53.78],[-1.03,53.77],[-1.02,53.77]],[[-0.73,53.61],[-0.73,53.6],[-0.74,53.59],[-0.73,53.58],[-0.71,53.61],[-0.73,53.61]],[[-0.75,53.57],[-0.75,53.56],[-0.73,53.58],[-0.75,53.57]],[[0.35,52.72],[0.35,52.7],[0.37,52.64],[0.36,52.72],[0.35,52.72]],[[1.73,52.6],[1.72,52.61],[1.73,52.57],[1.73,52.6]],[[1.73,52.62],[1.72,52.63],[1.72,52.61],[1.73,52.62]],[[1.69,52.62],[1.65,52.59],[1.72,52.61],[1.69,52.62]],[[1.64,52.59],[1.65,52.58],[1.65,52.59],[1.64,52.59]],[[1.61,52.54],[1.61,52.55],[1.58,52.56],[1.61,52.54]],[[1.65,52.5],[1.62,52.54],[1.61,52.54],[1.65,52.5]],[[1.59,52.48],[1.57,52.47],[1.63,52.46],[1.59,52.48]],[[1.65,52.33],[1.64,52.33],[1.63,52.33],[1.6,52.33],[1.63,52.32],[1.65,52.32],[1.65,52.33]],[[1.16,52.05],[1.15,52.05],[1.15,52.03],[1.16,52.03],[1.16,52.05]],[[0.09,51.53],[0.08,51.53],[0.07,51.5],[0.1,51.51],[0.09,51.53]],[[0.01,51.51],[-0.0,51.5],[0.06,51.49],[0.07,51.5],[0.01,51.51]],[[-0.01,51.5],[-0.0,51.49],[-0.0,51.5],[-0.01,51.5]],[[-0.02,51.49],[-0.03,51.51],[-0.11,51.51],[-0.02,51.48],[0.0,51.49],[-0.02,51.49]],[[-0.57,50.83],[-0.58,50.83],[-0.57,50.82],[-0.57,50.83]],[[-1.42,50.81],[-1.44,50.81],[-1.42,50.8],[-1.42,50.81]],[[-3.06,51.19],[-3.06,51.18],[-3.05,51.19],[-3.06,51.19]],[[-3.06,51.17],[-3.04,51.16],[-3.06,51.18],[-3.06,51.17]],[[-3.01,51.17],[-3.02,51.18],[-3.04,51.16],[-3.01,51.17]],[[-3.0,51.14],[-2.99,51.16],[-3.0,51.16],[-3.01,51.17],[-3.0,51.14]],[[-2.41,51.81],[-2.41,51.82],[-2.42,51.82],[-2.41,51.81]],[[-2.35,51.79],[-2.35,51.8],[-2.37,51.79],[-2.35,51.79]],[[-2.35,51.83],[-2.35,51.85],[-2.36,51.82],[-2.35,51.83]],[[-3.43,54.37],[-3.43,54.38],[-3.44,54.37],[-3.43,54.37]]],[[[-5.87,55.89],[-5.94,55.87],[-5.94,55.84],[-5.96,55.79],[-6.09,55.83],[-6.09,55.9],[-6.04,55.94],[-5.92,55.96],[-5.91,55.96],[-5.89,55.97],[-5.85,55.98],[-6.01,55.97],[-5.96,56.03],[-5.7,56.14],[-5.69,56.11],[-5.84,55.97],[-5.87,55.89]]],[[[-4.6,53.24],[-4.62,53.28],[-4.7,53.31],[-4.68,53.32],[-4.62,53.33],[-4.65,53.32],[-4.59,53.3],[-4.61,53.28],[-4.57,53.27],[-4.56,53.26],[-4.6,53.24]]],[[[-5.08,55.55],[-5.09,55.54],[-5.13,55.53],[-5.08,55.51],[-5.08,55.45],[-5.25,55.44],[-5.36,55.51],[-5.35,55.57],[-5.4,55.63],[-5.36,55.68],[-5.26,55.72],[-5.16,55.68],[-5.13,55.61],[-5.16,55.58],[-5.08,55.55]]],[[[-5.0,55.77],[-5.03,55.75],[-5.0,55.73],[-5.03,55.72],[-5.12,55.77],[-5.13,55.85],[-5.22,55.9],[-5.16,55.92],[-5.08,55.88],[-5.09,55.86],[-5.06,55.84],[-5.02,55.84],[-5.0,55.77]]],[[[-3.17,58.82],[-3.26,58.79],[-3.13,58.79],[-3.3,58.78],[-3.38,58.87],[-3.43,58.88],[-3.35,58.93],[-3.17,58.82]]],[[[-3.01,59.08],[-3.01,59.04],[-3.07,59.05],[-3.06,59.02],[-3.11,59.01],[-3.09,59.0],[-3.08,59.0],[-3.05,58.99],[-3.0,59.01],[-2.96,58.98],[-2.93,59.01],[-2.9,59.01],[-2.91,58.96],[-2.8,58.99],[-2.79,58.97],[-2.85,58.96],[-2.84,58.93],[-2.79,58.92],[-2.81,58.95],[-2.7,58.96],[-2.71,58.92],[-2.79,58.91],[-2.83,58.87],[-2.88,58.89],[-2.91,58.87],[-2.86,58.85],[-2.9,58.84],[-2.88,58.82],[-2.93,58.79],[-2.92,58.74],[-2.99,58.75],[-2.98,58.79],[-3.0,58.8],[-2.97,58.82],[-3.04,58.82],[-2.91,58.84],[-2.96,58.85],[-2.91,58.86],[-2.92,58.88],[-2.9,58.89],[-2.93,58.89],[-2.97,58.96],[-3.19,58.91],[-3.2,58.91],[-3.25,58.98],[-3.26,58.96],[-3.29,58.97],[-3.29,58.96],[-3.31,58.95],[-3.37,59.0],[-3.36,59.02],[-3.33,59.05],[-3.36,59.1],[-3.32,59.12],[-3.32,59.13],[-3.33,59.14],[-3.2,59.15],[-3.01,59.08]]],[[[-3.12,59.17],[-3.07,59.2],[-2.95,59.18],[-2.96,59.17],[-2.98,59.16],[-2.97,59.14],[-3.05,59.13],[-3.12,59.17]]],[[[-2.9,59.02],[-2.91,59.03],[-2.93,59.03],[-2.9,59.08],[-2.86,59.05],[-2.8,59.09],[-2.83,59.02],[-2.9,59.03],[-2.9,59.02]]],[[[-2.54,59.12],[-2.53,59.09],[-2.6,59.07],[-2.63,59.11],[-2.62,59.12],[-2.68,59.15],[-2.6,59.15],[-2.57,59.14],[-2.6,59.13],[-2.54,59.12]]],[[[-2.82,59.17],[-2.83,59.19],[-2.78,59.19],[-2.79,59.24],[-2.75,59.25],[-2.76,59.23],[-2.75,59.23],[-2.73,59.22],[-2.77,59.19],[-2.74,59.15],[-2.79,59.14],[-2.82,59.17]]],[[[-2.57,59.22],[-2.57,59.25],[-2.63,59.24],[-2.7,59.19],[-2.7,59.22],[-2.59,59.27],[-2.61,59.29],[-2.53,59.3],[-2.58,59.26],[-2.54,59.26],[-2.42,59.31],[-2.39,59.28],[-2.48,59.28],[-2.51,59.22],[-2.52,59.26],[-2.57,59.22]]],[[[-2.84,59.25],[-2.84,59.24],[-2.88,59.23],[-2.87,59.26],[-2.96,59.29],[-2.95,59.27],[-2.98,59.26],[-3.07,59.33],[-2.95,59.36],[-2.99,59.32],[-2.9,59.3],[-2.84,59.25]]],[[[-1.57,60.21],[-1.58,60.21],[-1.58,60.22],[-1.62,60.21],[-1.63,60.21],[-1.64,60.23],[-1.69,60.23],[-1.7,60.29],[-1.54,60.29],[-1.55,60.31],[-1.53,60.31],[-1.51,60.32],[-1.48,60.27],[-1.46,60.29],[-1.49,60.31],[-1.44,60.3],[-1.46,60.31],[-1.44,60.33],[-1.43,60.33],[-1.37,60.28],[-1.34,60.3],[-1.38,60.32],[-1.37,60.33],[-1.33,60.34],[-1.34,60.36],[-1.36,60.37],[-1.35,60.39],[-1.41,60.38],[-1.4,60.42],[-1.45,60.42],[-1.42,60.45],[-1.45,60.45],[-1.46,60.45],[-1.43,60.47],[-1.47,60.47],[-1.45,60.49],[-1.49,60.48],[-1.5,60.45],[-1.5,60.48],[-1.63,60.49],[-1.56,60.5],[-1.57,60.54],[-1.53,60.56],[-1.46,60.51],[-1.5,60.55],[-1.48,60.56],[-1.43,60.57],[-1.42,60.61],[-1.33,60.6],[-1.34,60.63],[-1.31,60.64],[-1.3,60.6],[-1.34,60.58],[-1.32,60.54],[-1.37,60.53],[-1.32,60.53],[-1.36,60.52],[-1.32,60.51],[-1.36,60.48],[-1.31,60.5],[-1.32,60.45],[-1.35,60.46],[-1.38,60.4],[-1.26,60.44],[-1.3,60.46],[-1.28,60.49],[-1.23,60.49],[-1.18,60.45],[-1.2,60.44],[-1.17,60.44],[-1.26,60.4],[-1.19,60.42],[-1.22,60.4],[-1.17,60.41],[-1.16,60.38],[-1.12,60.43],[-1.05,60.45],[-1.14,60.38],[-1.08,60.39],[-1.08,60.36],[-1.19,60.35],[-1.17,60.32],[-1.08,60.32],[-1.16,60.28],[-1.13,60.27],[-1.1,60.26],[-1.15,60.24],[-1.17,60.24],[-1.2,60.27],[-1.23,60.23],[-1.19,60.23],[-1.22,60.2],[-1.17,60.22],[-1.22,60.17],[-1.16,60.2],[-1.16,60.19],[-1.15,60.19],[-1.16,60.17],[-1.14,60.15],[-1.15,60.15],[-1.23,60.1],[-1.17,60.04],[-1.23,60.03],[-1.2,59.97],[-1.28,59.99],[-1.26,59.94],[-1.29,59.92],[-1.27,59.89],[-1.3,59.88],[-1.28,59.86],[-1.31,59.86],[-1.32,59.87],[-1.32,59.9],[-1.38,59.89],[-1.39,59.92],[-1.33,59.95],[-1.33,59.97],[-1.35,60.0],[-1.32,60.01],[-1.27,60.1],[-1.27,60.14],[-1.31,60.13],[-1.28,60.2],[-1.32,60.17],[-1.33,60.17],[-1.33,60.18],[-1.32,60.2],[-1.29,60.25],[-1.35,60.2],[-1.36,60.25],[-1.43,60.25],[-1.38,60.24],[-1.36,60.19],[-1.4,60.22],[-1.4,60.18],[-1.44,60.19],[-1.46,60.15],[-1.51,60.18],[-1.53,60.18],[-1.55,60.19],[-1.47,60.22],[-1.51,60.23],[-1.55,60.2],[-1.56,60.23],[-1.57,60.22],[-1.57,60.21]],[[-1.45,60.5],[-1.39,60.51],[-1.46,60.51],[-1.45,60.5]],[[-1.27,60.22],[-1.26,60.24],[-1.32,60.17],[-1.27,60.22]]],[[[-1.23,50.72],[-1.11,50.72],[-1.07,50.68],[-1.16,50.65],[-1.19,50.6],[-1.3,50.58],[-1.48,50.67],[-1.59,50.66],[-1.52,50.71],[-1.38,50.71],[-1.37,50.72],[-1.4,50.72],[-1.41,50.73],[-1.31,50.77],[-1.29,50.7],[-1.29,50.76],[-1.23,50.72]]],[[[-1.05,60.15],[-1.07,60.1],[-1.12,60.12],[-1.11,60.16],[-1.15,60.17],[-1.08,60.17],[-1.08,60.19],[-1.05,60.16],[-1.05,60.15]]],[[[-0.99,60.67],[-0.98,60.64],[-1.07,60.67],[-1.02,60.62],[-1.09,60.6],[-1.0,60.58],[-1.01,60.55],[-1.05,60.55],[-1.03,60.5],[-1.12,60.51],[-1.1,60.49],[-1.15,60.48],[-1.19,60.52],[-1.2,60.61],[-1.2,60.62],[-1.16,60.66],[-1.15,60.63],[-1.12,60.72],[-1.13,60.72],[-1.13,60.73],[-1.11,60.73],[-1.01,60.71],[-0.99,60.67]],[[-1.15,60.62],[-1.11,60.61],[-1.15,60.63],[-1.15,60.62]]],[[[-0.96,60.38],[-0.9,60.38],[-0.98,60.33],[-1.04,60.33],[-0.96,60.38]]],[[[-0.79,60.57],[-0.89,60.59],[-0.86,60.57],[-0.89,60.56],[-0.95,60.61],[-0.94,60.63],[-0.9,60.63],[-0.78,60.62],[-0.77,60.61],[-0.79,60.57]]],[[[-0.78,60.83],[-0.76,60.82],[-0.8,60.81],[-0.78,60.78],[-0.84,60.79],[-0.8,60.76],[-0.87,60.76],[-0.81,60.75],[-0.87,60.7],[-0.83,60.68],[-0.92,60.68],[-0.98,60.68],[-0.98,60.72],[-0.94,60.75],[-0.94,60.81],[-0.9,60.84],[-0.88,60.85],[-0.87,60.81],[-0.84,60.84],[-0.78,60.83]]]]}}
