{"type":"Feature","properties":{},"geometry":{"type":"Polygon","coordinates":[[[-0.32,43.18],[-0.38,43.38],[-0.4,43.58],[-0.44,43.78],[-0.48,43.98],[-0.52,44.18],[-0.58,44.38],[-0.58,44.58],[-0.66,44.78],[-0.68,44.98],[-0.74,45.18],[-0.76,45.38],[-0.82,45.58],[-0.86,45.78],[-0.9,45.98],[-0.94,46.18],[-0.98,46.38],[-1.04,46.58],[-1.06,46.78],[-1.14,46.98],[-1.14,47.18],[-1.22,47.38],[-1.24,47.58],[-1.32,47.78],[-1.34,47.98],[-1.4,48.18],[-1.44,48.38],[-1.5,48.58],[-1.54,48.78],[-1.58,48.98],[-1.6,49.18],[-1.68,49.38],[-1.7,49.58],[-1.78,49.78],[-1.8,49.98],[-1.86,50.18],[-1.9,50.38],[-1.96,50.58],[-2.0,50.78],[-2.08,50.98],[-2.1,51.18],[-2.18,51.38],[-2.22,51.58],[-2.3,51.78],[-2.34,51.98],[-2.4,52.18],[-2.46,52.38],[-2.46,52.58],[-2.54,52.78],[-2.58,52.98],[-2.66,53.18],[-2.72,53.38],[-2.78,53.58],[-2.84,53.78],[-2.9,53.98],[-2.98,54.18],[-3.0,54.38],[-3.12,54.58],[-3.14,54.78],[-3.16,54.98],[-3.28,55.18],[-3.3,55.38],[-3.4,55.58],[-3.44,55.78],[-3.54,55.98],[-3.6,56.18],[-3.62,56.38],[-3.68,56.58],[-3.78,56.78],[-3.82,56.98],[-3.94,57.18],[-3.76,57.38],[-1.84,57.58],[0.88,57.78],[4.96,57.98],[8.62,58.08],[12.28,58.08],[15.46,57.98],[19.26,57.78],[20.32,57.58],[20.26,57.38],[20.26,57.18],[20.14,56.98],[20.14,56.78],[20.02,56.58],[20.02,56.38],[19.96,56.18],[19.9,55.98],[19.88,55.78],[19.8,55.58],[19.78,55.38],[19.76,55.18],[19.66,54.98],[19.66,54.78],[19.64,54.58],[19.54,54.38],[19.5,54.18],[19.44,53.98],[19.42,53.78],[19.36,53.58],[19.32,53.38],[19.32,53.18],[19.22,52.98],[19.2,52.78],[19.2,52.58],[19.1,52.38],[19.1,52.18],[19.08,51.98],[19.0,51.78],[18.98,51.58],[18.96,51.38],[18.9,51.18],[18.86,50.98],[18.8,50.78],[18.78,50.58],[18.74,50.38],[18.7,50.18],[18.68,49.98],[18.62,49.78],[18.6,49.58],[18.58,49.38],[18.52,49.18],[18.5,48.98],[18.48,48.78],[18.42,48.58],[18.4,48.38],[18.32,48.18],[18.32,47.98],[18.3,47.78],[18.24,47.58],[18.22,47.38],[18.22,47.18],[18.14,46.98],[18.12,46.78],[18.12,46.58],[18.06,46.38],[18.04,46.18],[17.96,45.98],[17.96,45.78],[17.96,45.58],[17.9,45.38],[17.88,45.18],[17.88,44.98],[17.82,44.78],[17.8,44.58],[17.8,44.38],[17.72,44.18],[17.72,43.98],[17.68,43.78],[17.64,43.58],[17.64,43.38],[0.5,43.18],[-0.32,43.18]]]}}
