{"type":"Feature","properties":{},"geometry":{"type":"MultiPolygon","coordinates":[[[[-7.29,55.05],[-7.36,55.04],[-7.41,55.0],[-7.41,54.95],[-7.45,54.93],[-7.46,54.86],[-7.54,54.79],[-7.54,54.74],[-7.65,54.74],[-7.77,54.71],[-7.85,54.73],[-7.93,54.7],[-7.91,54.69],[-7.91,54.66],[-7.85,54.63],[-7.81,54.64],[-7.75,54.61],[-7.71,54.62],[-7.71,54.6],[-7.89,54.53],[-8.0,54.54],[-8.07,54.49],[-8.17,54.46],[-8.06,54.37],[-8.0,54.36],[-7.95,54.3],[-7.88,54.29],[-7.86,54.21],[-7.7,54.2],[-7.63,54.17],[-7.61,54.14],[-7.5,54.13],[-7.43,54.14],[-7.39,54.12],[-7.33,54.11],[-7.31,54.11],[-7.33,54.14],[-7.33,54.15],[-7.3,54.17],[-7.3,54.13],[-7.28,54.13],[-7.27,54.16],[-7.25,54.17],[-7.26,54.18],[-7.25,54.2],[-7.15,54.22],[-7.16,54.24],[-7.15,54.25],[-7.18,54.27],[-7.18,54.28],[-7.21,54.29],[-7.18,54.32],[-7.19,54.33],[-7.13,54.35],[-7.08,54.39],[-7.02,54.41],[-6.88,54.34],[-6.86,54.29],[-6.88,54.28],[-6.84,54.26],[-6.79,54.2],[-6.74,54.18],[-6.69,54.2],[-6.64,54.17],[-6.63,54.15],[-6.67,54.11],[-6.66,54.09],[-6.67,54.07],[-6.63,54.04],[-6.48,54.07],[-6.43,54.06],[-6.38,54.06],[-6.35,54.11],[-6.33,54.1],[-6.28,54.11],[-6.11,54.01],[-6.16,53.97],[-6.36,54.02],[-6.35,54.0],[-6.38,53.93],[-6.37,53.9],[-6.35,53.88],[-6.24,53.87],[-6.25,53.82],[-6.22,53.8],[-6.25,53.76],[-6.23,53.66],[-6.17,53.61],[-6.09,53.58],[-6.08,53.55],[-6.08,53.53],[-6.13,53.46],[-6.16,53.47],[-6.19,53.46],[-6.13,53.44],[-6.11,53.41],[-6.13,53.4],[-6.05,53.39],[-6.06,53.37],[-6.13,53.39],[-6.22,53.35],[-6.16,53.3],[-6.1,53.29],[-6.1,53.23],[-6.07,53.18],[-6.08,53.17],[-6.03,53.11],[-6.05,53.01],[-5.99,52.96],[-6.04,52.92],[-6.06,52.86],[-6.13,52.82],[-6.15,52.77],[-6.15,52.75],[-6.22,52.67],[-6.21,52.55],[-6.36,52.41],[-6.37,52.34],[-6.39,52.36],[-6.47,52.36],[-6.46,52.38],[-6.5,52.36],[-6.46,52.34],[-6.45,52.31],[-6.42,52.31],[-6.41,52.29],[-6.39,52.3],[-6.32,52.24],[-6.35,52.2],[-6.38,52.18],[-6.4,52.19],[-6.38,52.21],[-6.43,52.19],[-6.47,52.19],[-6.45,52.2],[-6.47,52.21],[-6.58,52.18],[-6.72,52.22],[-6.81,52.21],[-6.79,52.24],[-6.83,52.24],[-6.84,52.21],[-6.82,52.22],[-6.83,52.19],[-6.82,52.19],[-6.93,52.12],[-6.95,52.13],[-6.9,52.17],[-6.92,52.21],[-6.97,52.25],[-7.0,52.29],[-6.97,52.22],[-6.98,52.19],[-6.96,52.18],[-7.02,52.14],[-7.11,52.13],[-7.07,52.17],[-7.11,52.17],[-7.12,52.17],[-7.11,52.15],[-7.15,52.16],[-7.19,52.13],[-7.44,52.13],[-7.57,52.08],[-7.58,52.1],[-7.6,52.1],[-7.63,52.08],[-7.63,52.06],[-7.6,52.07],[-7.55,52.05],[-7.58,52.03],[-7.59,51.99],[-7.71,51.97],[-7.72,51.94],[-7.83,51.95],[-7.85,51.98],[-7.87,51.93],[-7.92,51.91],[-7.88,51.89],[-7.89,51.88],[-8.01,51.86],[-8.02,51.84],[-8.0,51.83],[-8.02,51.82],[-8.25,51.8],[-8.22,51.82],[-8.23,51.84],[-8.18,51.86],[-8.2,51.86],[-8.19,51.89],[-8.21,51.88],[-8.29,51.9],[-8.41,51.89],[-8.43,51.88],[-8.33,51.86],[-8.35,51.83],[-8.3,51.83],[-8.31,51.82],[-8.29,51.81],[-8.32,51.8],[-8.28,51.8],[-8.31,51.78],[-8.3,51.77],[-8.35,51.72],[-8.44,51.69],[-8.46,51.7],[-8.48,51.68],[-8.49,51.7],[-8.51,51.71],[-8.56,51.71],[-8.5,51.69],[-8.54,51.65],[-8.53,51.61],[-8.57,51.64],[-8.76,51.64],[-8.69,51.63],[-8.7,51.62],[-8.68,51.61],[-8.7,51.6],[-8.7,51.58],[-8.85,51.6],[-8.89,51.56],[-8.93,51.54],[-8.99,51.56],[-9.07,51.55],[-9.12,51.56],[-9.11,51.55],[-9.12,51.54],[-9.19,51.52],[-9.19,51.51],[-9.22,51.49],[-9.26,51.49],[-9.27,51.51],[-9.34,51.48],[-9.38,51.47],[-9.37,51.49],[-9.37,51.51],[-9.4,51.5],[-9.41,51.51],[-9.4,51.55],[-9.44,51.56],[-9.46,51.56],[-9.45,51.54],[-9.55,51.53],[-9.56,51.51],[-9.61,51.49],[-9.66,51.52],[-9.72,51.48],[-9.7,51.47],[-9.82,51.45],[-9.81,51.47],[-9.83,51.49],[-9.55,51.61],[-9.59,51.61],[-9.79,51.55],[-9.85,51.55],[-9.59,51.66],[-9.46,51.68],[-9.44,51.72],[-9.53,51.73],[-9.53,51.75],[-9.56,51.76],[-9.55,51.72],[-9.63,51.69],[-9.87,51.66],[-10.03,51.6],[-10.12,51.6],[-10.16,51.58],[-10.15,51.61],[-10.06,51.63],[-10.07,51.66],[-10.1,51.66],[-10.09,51.67],[-10.0,51.68],[-9.96,51.71],[-10.0,51.71],[-9.98,51.73],[-9.89,51.76],[-9.9,51.74],[-9.87,51.75],[-9.85,51.78],[-9.79,51.77],[-9.81,51.79],[-9.74,51.84],[-9.67,51.84],[-9.58,51.88],[-9.76,51.85],[-9.86,51.8],[-9.87,51.8],[-9.87,51.82],[-9.88,51.82],[-10.14,51.74],[-10.13,51.75],[-10.22,51.78],[-10.19,51.79],[-10.18,51.81],[-10.19,51.84],[-10.23,51.85],[-10.34,51.79],[-10.34,51.84],[-10.39,51.85],[-10.38,51.88],[-10.4,51.88],[-10.36,51.89],[-10.25,51.91],[-10.26,51.93],[-10.31,51.95],[-10.26,51.97],[-10.27,51.99],[-10.03,52.04],[-9.99,52.06],[-9.97,52.09],[-9.95,52.06],[-9.93,52.06],[-9.91,52.13],[-9.77,52.12],[-9.79,52.14],[-9.76,52.15],[-9.96,52.15],[-9.94,52.12],[-9.95,52.11],[-10.0,52.14],[-10.19,52.11],[-10.22,52.13],[-10.24,52.12],[-10.28,52.14],[-10.31,52.12],[-10.37,52.12],[-10.35,52.11],[-10.44,52.1],[-10.47,52.12],[-10.48,52.15],[-10.45,52.17],[-10.46,52.18],[-10.42,52.19],[-10.37,52.18],[-10.37,52.23],[-10.32,52.23],[-10.28,52.27],[-10.17,52.29],[-10.16,52.28],[-10.17,52.23],[-10.1,52.24],[-10.04,52.27],[-10.04,52.29],[-10.06,52.31],[-10.01,52.31],[-10.01,52.25],[-9.95,52.24],[-9.87,52.23],[-9.83,52.26],[-9.87,52.27],[-9.88,52.3],[-9.85,52.28],[-9.83,52.29],[-9.86,52.3],[-9.83,52.31],[-9.83,52.38],[-9.95,52.41],[-9.75,52.46],[-9.7,52.48],[-9.63,52.47],[-9.65,52.49],[-9.68,52.49],[-9.68,52.55],[-9.65,52.57],[-9.47,52.56],[-9.44,52.58],[-9.27,52.58],[-9.05,52.63],[-9.01,52.62],[-8.96,52.65],[-8.75,52.67],[-8.96,52.69],[-8.95,52.73],[-8.97,52.75],[-8.94,52.78],[-9.02,52.75],[-9.06,52.7],[-9.15,52.62],[-9.25,52.61],[-9.29,52.59],[-9.33,52.6],[-9.28,52.63],[-9.28,52.64],[-9.43,52.61],[-9.52,52.64],[-9.54,52.67],[-9.58,52.67],[-9.55,52.64],[-9.69,52.61],[-9.71,52.58],[-9.94,52.56],[-9.82,52.6],[-9.62,52.71],[-9.63,52.73],[-9.5,52.75],[-9.48,52.78],[-9.49,52.8],[-9.45,52.83],[-9.43,52.88],[-9.35,52.93],[-9.48,52.94],[-9.39,53.01],[-9.4,53.02],[-9.27,53.15],[-9.25,53.15],[-9.16,53.11],[-9.1,53.13],[-9.07,53.12],[-9.07,53.13],[-9.13,53.16],[-9.07,53.17],[-9.0,53.15],[-9.05,53.17],[-8.99,53.18],[-8.94,53.15],[-8.96,53.18],[-8.89,53.22],[-9.05,53.22],[-8.96,53.24],[-8.99,53.25],[-8.94,53.26],[-9.02,53.28],[-9.51,53.23],[-9.57,53.26],[-9.55,53.28],[-9.55,53.29],[-9.57,53.29],[-9.59,53.25],[-9.61,53.24],[-9.63,53.25],[-9.61,53.28],[-9.62,53.32],[-9.58,53.32],[-9.56,53.34],[-9.6,53.36],[-9.55,53.39],[-9.62,53.38],[-9.61,53.35],[-9.63,53.33],[-9.65,53.34],[-9.64,53.38],[-9.65,53.39],[-9.74,53.31],[-9.81,53.3],[-9.84,53.32],[-9.9,53.32],[-9.89,53.36],[-9.79,53.39],[-9.82,53.4],[-9.8,53.42],[-9.86,53.39],[-9.88,53.41],[-9.85,53.43],[-9.91,53.43],[-9.92,53.39],[-9.96,53.38],[-10.01,53.38],[-10.06,53.41],[-10.18,53.41],[-10.14,53.45],[-10.05,53.45],[-10.09,53.48],[-10.02,53.47],[-10.01,53.48],[-10.11,53.49],[-10.15,53.54],[-10.2,53.54],[-10.18,53.56],[-10.11,53.55],[-10.12,53.57],[-10.07,53.57],[-10.03,53.56],[-10.01,53.54],[-9.97,53.56],[-10.05,53.6],[-9.93,53.6],[-9.87,53.62],[-9.82,53.61],[-9.7,53.6],[-9.78,53.61],[-9.91,53.65],[-9.92,53.69],[-9.9,53.74],[-9.91,53.76],[-9.79,53.79],[-9.75,53.78],[-9.57,53.8],[-9.62,53.82],[-9.56,53.87],[-9.59,53.87],[-9.57,53.9],[-9.76,53.9],[-9.91,53.86],[-9.94,53.88],[-9.94,53.89],[-9.91,53.92],[-9.92,53.95],[-9.87,53.96],[-9.81,53.94],[-9.81,53.92],[-9.79,53.92],[-9.79,53.95],[-9.81,53.97],[-9.83,53.96],[-9.85,54.0],[-9.9,54.03],[-9.9,54.06],[-9.86,54.07],[-9.88,54.08],[-9.83,54.11],[-9.88,54.11],[-9.92,54.07],[-9.97,54.08],[-9.99,54.1],[-9.91,54.12],[-9.95,54.14],[-9.96,54.15],[-9.93,54.15],[-9.98,54.18],[-9.94,54.19],[-10.01,54.22],[-10.03,54.21],[-10.02,54.19],[-10.05,54.19],[-10.04,54.17],[-10.09,54.16],[-10.07,54.13],[-10.09,54.12],[-10.07,54.09],[-10.12,54.1],[-10.13,54.13],[-10.09,54.19],[-10.06,54.22],[-10.12,54.24],[-10.0,54.3],[-9.97,54.28],[-9.88,54.26],[-9.84,54.28],[-9.77,54.26],[-9.8,54.28],[-9.76,54.28],[-9.83,54.3],[-9.85,54.32],[-9.79,54.34],[-9.71,54.32],[-9.49,54.32],[-9.38,54.3],[-9.33,54.32],[-9.27,54.3],[-9.25,54.28],[-9.21,54.28],[-9.22,54.25],[-9.2,54.24],[-9.21,54.22],[-9.15,54.18],[-9.14,54.15],[-9.13,54.21],[-9.09,54.23],[-9.05,54.29],[-8.94,54.29],[-8.86,54.26],[-8.68,54.27],[-8.57,54.2],[-8.51,54.21],[-8.57,54.25],[-8.62,54.26],[-8.59,54.28],[-8.47,54.28],[-8.57,54.31],[-8.57,54.32],[-8.53,54.31],[-8.51,54.32],[-8.52,54.33],[-8.66,54.34],[-8.66,54.36],[-8.47,54.43],[-8.47,54.48],[-8.44,54.45],[-8.21,54.5],[-8.27,54.52],[-8.22,54.55],[-8.22,54.57],[-8.17,54.59],[-8.18,54.62],[-8.14,54.61],[-8.12,54.65],[-8.29,54.61],[-8.28,54.63],[-8.3,54.64],[-8.46,54.56],[-8.38,54.61],[-8.39,54.62],[-8.42,54.62],[-8.42,54.64],[-8.43,54.64],[-8.46,54.6],[-8.49,54.63],[-8.56,54.61],[-8.67,54.62],[-8.69,54.64],[-8.79,54.66],[-8.78,54.68],[-8.8,54.69],[-8.64,54.77],[-8.46,54.76],[-8.55,54.78],[-8.53,54.79],[-8.48,54.79],[-8.44,54.76],[-8.41,54.76],[-8.46,54.79],[-8.56,54.82],[-8.49,54.85],[-8.33,54.83],[-8.38,54.86],[-8.37,54.88],[-8.31,54.88],[-8.34,54.9],[-8.37,54.91],[-8.38,54.89],[-8.41,54.89],[-8.45,54.92],[-8.46,54.94],[-8.45,54.95],[-8.42,54.93],[-8.37,54.95],[-8.42,54.97],[-8.46,55.0],[-8.42,55.0],[-8.4,55.03],[-8.37,55.04],[-8.35,55.06],[-8.34,55.04],[-8.32,55.03],[-8.31,55.06],[-8.32,55.1],[-8.28,55.16],[-8.21,55.15],[-8.14,55.16],[-8.16,55.12],[-7.98,55.22],[-7.95,55.21],[-8.0,55.17],[-7.91,55.19],[-7.9,55.16],[-7.86,55.17],[-7.89,55.14],[-7.86,55.14],[-7.83,55.16],[-7.87,55.21],[-7.8,55.26],[-7.82,55.19],[-7.72,55.17],[-7.72,55.18],[-7.79,55.21],[-7.79,55.22],[-7.76,55.26],[-7.64,55.27],[-7.61,55.24],[-7.61,55.2],[-7.57,55.18],[-7.53,55.12],[-7.54,55.09],[-7.64,55.05],[-7.56,55.04],[-7.57,55.02],[-7.68,54.95],[-7.46,55.06],[-7.45,55.09],[-7.48,55.1],[-7.46,55.14],[-7.55,55.22],[-7.52,55.25],[-7.52,55.29],[-7.48,55.28],[-7.46,55.29],[-7.47,55.3],[-7.41,55.29],[-7.35,55.31],[-7.31,55.29],[-7.34,55.29],[-7.32,55.28],[-7.26,55.28],[-7.35,55.34],[-7.35,55.36],[-7.4,55.38],[-7.38,55.39],[-7.21,55.35],[-7.13,55.29],[-6.95,55.25],[-6.94,55.24],[-6.94,55.22],[-7.16,55.15],[-7.29,55.05]],[[-9.81,52.24],[-9.74,52.25],[-9.83,52.26],[-9.81,52.24]],[[-9.93,54.23],[-9.98,54.24],[-9.98,54.22],[-9.91,54.2],[-9.87,54.23],[-9.88,54.24],[-9.88,54.26],[-9.93,54.23]],[[-7.7,55.13],[-7.7,55.1],[-7.67,55.15],[-7.7,55.21],[-7.72,55.21],[-7.71,55.17],[-7.72,55.17],[-7.7,55.13]]],[[[-9.69,53.23],[-9.72,53.27],[-9.67,53.28],[-9.64,53.25],[-9.69,53.23]]],[[[-9.92,53.95],[-9.94,53.89],[-9.96,53.88],[-10.02,53.91],[-10.06,53.91],[-10.07,53.97],[-10.16,53.96],[-10.27,53.98],[-10.22,53.99],[-10.19,54.02],[-10.13,54.0],[-10.06,54.02],[-9.98,54.02],[-9.94,53.99],[-9.96,53.99],[-9.96,53.95],[-9.92,53.95]]],[[[-8.48,54.98],[-8.57,54.98],[-8.54,55.02],[-8.51,55.01],[-8.48,54.98]]],[[[-9.89,51.61],[-9.92,51.62],[-9.88,51.64],[-9.81,51.64],[-9.89,51.61]]],[[[-10.3,51.91],[-10.36,51.89],[-10.43,51.89],[-10.35,51.93],[-10.3,51.92],[-10.3,51.91]]],[[[-9.66,53.09],[-9.81,53.14],[-9.7,53.14],[-9.65,53.1],[-9.66,53.09]]]]}}
