{"type":"Feature","properties":{},"geometry":{"type":"MultiPolygon","coordinates":[[[[-7.05,55.05],[-7.02,55.07],[-7.01,55.1],[-6.97,55.14],[-6.96,55.19],[-6.88,55.17],[-6.75,55.18],[-6.57,55.21],[-6.48,55.25],[-6.42,55.23],[-6.35,55.24],[-6.24,55.21],[-6.16,55.22],[-6.1,55.21],[-6.04,55.17],[-6.04,55.11],[-6.06,55.07],[-5.97,55.04],[-5.99,54.98],[-5.93,54.97],[-5.89,54.94],[-5.82,54.88],[-5.8,54.82],[-5.72,54.78],[-5.8,54.84],[-5.78,54.86],[-5.75,54.86],[-5.7,54.82],[-5.69,54.79],[-5.69,54.77],[-5.73,54.73],[-5.85,54.7],[-5.89,54.67],[-5.93,54.63],[-5.91,54.61],[-5.84,54.65],[-5.75,54.68],[-5.69,54.67],[-5.57,54.68],[-5.54,54.66],[-5.51,54.6],[-5.48,54.57],[-5.47,54.52],[-5.43,54.49],[-5.43,54.46],[-5.46,54.43],[-5.46,54.39],[-5.49,54.37],[-5.47,54.36],[-5.52,54.34],[-5.55,54.37],[-5.54,54.33],[-5.55,54.3],[-5.66,54.23],[-5.68,54.25],[-5.74,54.25],[-5.86,54.23],[-5.87,54.16],[-5.89,54.1],[-6.03,54.04],[-6.08,54.03],[-6.11,54.04],[-6.08,54.06],[-6.17,54.07],[-6.19,54.09],[-6.35,54.11],[-6.38,54.06],[-6.43,54.06],[-6.48,54.07],[-6.63,54.04],[-6.67,54.07],[-6.66,54.09],[-6.67,54.11],[-6.63,54.15],[-6.64,54.17],[-6.69,54.2],[-6.74,54.18],[-6.79,54.2],[-6.84,54.26],[-6.88,54.28],[-6.86,54.29],[-6.88,54.34],[-7.02,54.41],[-7.08,54.39],[-7.13,54.35],[-7.19,54.33],[-7.18,54.32],[-7.21,54.29],[-7.18,54.28],[-7.18,54.27],[-7.15,54.25],[-7.16,54.24],[-7.15,54.22],[-7.25,54.2],[-7.26,54.18],[-7.25,54.17],[-7.27,54.16],[-7.28,54.13],[-7.3,54.13],[-7.3,54.17],[-7.33,54.15],[-7.31,54.11],[-7.39,54.12],[-7.43,54.14],[-7.5,54.13],[-7.61,54.14],[-7.63,54.17],[-7.7,54.2],[-7.86,54.21],[-7.88,54.29],[-7.95,54.3],[-8.0,54.36],[-8.06,54.37],[-8.17,54.46],[-8.07,54.49],[-8.0,54.54],[-7.89,54.53],[-7.71,54.6],[-7.71,54.62],[-7.75,54.61],[-7.81,54.64],[-7.85,54.63],[-7.91,54.66],[-7.91,54.69],[-7.93,54.7],[-7.85,54.73],[-7.77,54.71],[-7.65,54.74],[-7.54,54.74],[-7.54,54.79],[-7.46,54.86],[-7.45,54.93],[-7.41,54.95],[-7.41,55.0],[-7.36,55.04],[-7.29,55.05],[-7.25,55.07],[-7.26,55.05],[-7.05,55.05]],[[-5.58,54.4],[-5.54,54.46],[-5.56,54.51],[-5.64,54.57],[-5.7,54.58],[-5.7,54.55],[-5.72,54.54],[-5.63,54.52],[-5.67,54.51],[-5.64,54.5],[-5.64,54.47],[-5.63,54.46],[-5.63,54.44],[-5.66,54.38],[-5.71,54.35],[-5.58,54.38],[-5.55,54.37],[-5.58,54.4]]]]}}
